    CK08X030  2008 10  8.2304  1.922164  0.955980  140.9944  337.6488   66.4553  20180304  13.0  4.0  C/2008 X3 (LINEAR)                                       MPC 65057
    PK08Y010  2019 09 10.6724  1.268535  0.735916  162.7993  259.3345    8.9181  20180304  15.0  4.0  P/2008 Y1 (Boattini)                                     MPC 65935
    PK08Y030  2009 01 10.3293  4.443844  0.447169  238.4265  262.7978   38.7701  20180304   8.5  4.0  P/2008 Y3 (McNaught)                                     MPC 75710
    PK08Y120  2019 10  9.8463  0.067751  0.977982  144.3211  309.8504   23.5787  20180304   9.0  4.0  P/2008 Y12 (SOHO)                                        MPC 88693
    PK09B010  2026 07 10.8575  2.458710  0.634592  129.0996  297.0803   22.2235  20180304  13.0  4.0  P/2009 B1 (Boattini)                                     MPC 75710
    CK09B020  2009 03  5.3717  2.349708  0.942372  192.5505   18.7184  156.9463  20180304  12.5  4.0  C/2009 B2 (LINEAR)                                       MPC 82315
    CK09E010  2009 04  9.2794  0.590722  0.985296   48.6891  105.7399  127.2012  20180304  11.5  4.0  C/2009 E1 (Itagaki)                                      MPC 72850
    CK09F010  2009 06 27.0065  1.844033  0.980984  219.8000  357.9548  171.3964  20180304  15.0  4.0  C/2009 F1 (Larson)                                       MPC 82315
    CK09F020  2009 11 13.8716  5.891892  0.983770  336.5099  213.9076   59.3352  20180304   6.0  4.0  C/2009 F2 (McNaught)                                     MPC 80256
    CK09F040  2012 01  1.7346  5.450451  0.999832  260.3735   53.5593   79.4590  20180304   3.0  4.0  C/2009 F4 (McNaught)                                     MPC 95208
    CK09F050  2008 11  2.6110  2.252144  0.971363  297.3697  218.7717   84.9393  20180304  10.0  4.0  C/2009 F5 (McNaught)                                     MPC 66204
    CK09F060  2009 05  5.5368  1.287482  0.997405  129.9367  278.9830   85.6627  20180304   6.0  4.0  C/2009 F6 (Yi-SWAN)                                      MPC 72850
    CK09G010  2009 04 13.9174  1.122703  0.997116  175.2729  120.5835  108.4906  20180304   9.0  4.0  C/2009 G1 (STEREO)                                       MPC 66466
    CK09K020  2010 02  8.5681  3.223917  0.996241  147.5014  123.6667   66.8452  20180304  10.0  4.0  C/2009 K2 (Catalina)                                     MPC 82315
    CK09K040  2009 06 19.7579  1.556701  0.963237  127.7872   29.7884   34.8380  20180304  13.0  4.0  C/2009 K4 (Gibbs)                                        MPC 66703
    CK09K050  2010 04 28.8943  1.426609  0.999324   66.2132  258.0820  104.2465  20180304   7.5  4.0  C/2009 K5 (McNaught)                                     MPC 82315
    CK09O020  2010 03 23.8780  0.706946  0.997283  133.6779  310.4392  107.8411  20180304  11.0  4.0  C/2009 O2 (Catalina)                                     MPC 69905
    PK09O030  2009 05 11.6515  2.447180  0.685478  154.2985  183.8095   16.2151  20180304  12.5  4.0  P/2009 O3 (Hill)                                         MPC 75710
    CK09O040  2009 12 28.2351  2.566015  0.999850  223.6987  172.9954   95.7247  20180304  10.0  4.0  C/2009 O4 (Hill)                                         MPC 67147
    CK09P010  2011 12 21.2914  1.561689  0.999808   90.8688  326.1305  106.2611  20180304   4.0  4.0  C/2009 P1 (Garradd)                                      MPC103843
    CK09P020  2010 02  9.0119  6.528685  0.999963   76.1253   60.4928  163.4122  20180304   6.0  4.0  C/2009 P2 (Boattini)                                     MPC 76024
    PK09Q010  2022 05 25.9738  2.793993  0.493662  157.1547  173.9454   14.4981  20180304  11.5  4.0  P/2009 Q1 (Hill)                                         MPC 75710
    PK09Q040  2015 06 13.3175  1.313161  0.580783  320.0790  127.5145   10.9870  20180304  15.5  4.0  P/2009 Q4 (Boattini)                                     MPC 72850
    PK09Q050  2009 08 29.3538  2.927627  0.606889  209.1159  160.1900   40.8820  20180304  10.0  4.0  P/2009 Q5 (McNaught)                                     MPC 68902
    CK09R010  2010 07  1.7100  0.415076  1.000393  130.9008  322.7295   76.9351  20180304   8.0  4.0  C/2009 R1 (McNaught)                                     MPC 82315
    CK09S030  2011 12 11.2501  6.462447  0.998941  129.6882  225.1766   60.4568  20180304   6.5  4.0  C/2009 S3 (Lemmon)                                       MPC 87062
    PK09SS0K  2019 10 23.9153  4.209209  0.119134  327.9498   36.4145   16.8000  20180304  11.0  4.0  P/2009 SK280 (Spacewatch-Hill)                           MPC 78184
    CK09T010  2009 10  8.8480  6.222356  0.994384  282.5951   54.4711   90.0466  20180304   6.5  4.0  C/2009 T1 (McNaught)                                     MPC 76567
    PK09T020  2010 01  4.0928  1.817515  0.764846  216.5914  215.7150   27.4943  20180304  14.0  4.0  P/2009 T2 (La Sagra)                                     MPC 75711
    CK09T030  2010 01 12.0869  2.266565  0.999368   32.3716   60.1743  148.5872  20180304  12.5  4.0  C/2009 T3 (LINEAR)                                       MPC 82315
    CK09U030  2010 03 18.4521  1.425729  0.991995   77.9916   49.0594   51.0554  20180304  13.0  4.0  C/2009 U3 (Hill)                                         MPC 70812
    PK09U040  2021 02  1.7574  1.649119  0.675242  259.8289   55.3688   10.0807  20180304  14.0  4.0  P/2009 U4 (McNaught)                                     MPC 75711
    CK09U050  2010 06 22.8938  6.129760  1.004123   24.2519  121.0568   25.4407  20180304   7.0  4.0  C/2009 U5 (Grauer)                                       MPC 82315
    CK09U89G  2010 12 11.8788  3.941819  1.005212   60.6376  321.0575  130.1519  20180304   9.0  4.0  C/2009 UG89 (Lemmon)                                     MPC 82315
    CK09W020  2010 05  7.3987  6.907514  0.999248  121.6138  199.6198  164.5054  20180304   7.0  4.0  C/2009 W2 (Boattini)                                     MPC 72851
    PK09W51X  2015 06 25.0055  0.798125  0.740593  118.1306   31.6651    9.6001  20180304  19.0  2.0  P/2009 WX51 (Catalina)                                   MPC105235
    CK09Y010  2011 01 30.0936  2.500160  0.992724  127.1454  160.2613  107.3351  20180304   9.0  4.0  C/2009 Y1 (Catalina)                                     MPC 82316
    PK09Y020  2010 03 19.4343  2.380005  0.636257  172.3826  262.0200   29.9517  20180304  13.0  4.0  P/2009 Y2 (Kowalski)                                     MPC 74247
    PK10A010  2018 10 14.7992  1.957200  0.554088   13.3070   47.3169   10.3085  20180304  13.0  4.0  P/2010 A1 (Hill)                                         MPC 69417
    PK10A030  2025 03 20.1712  1.627011  0.732092   41.4741   64.6584   14.9717  20180304  14.0  4.0  P/2010 A3 (Hill)                                         MPC 75711
    CK10A040  2010 10 11.4214  2.722222  0.990532  271.5817  346.6810   96.7438  20180304  12.5  4.0  C/2010 A4 (Siding Spring)                                MPC 77403
    PK10A050  2021 10 16.7631  1.702595  0.665438  307.0183  277.6864    5.7941  20180304  13.0  4.0  P/2010 A5 (LINEAR)                                       MPC 72851
    CK10B010  2011 02  7.5273  2.944096  0.999902  211.6450  277.2757  101.7893  20180304   7.5  4.0  C/2010 B1 (Cardinal)                                     MPC 80896
    PK10B020  2015 06 13.1453  1.614419  0.480522  155.9835    0.8578    8.9369  20180304  17.0  4.0  P/2010 B2 (WISE)                                         MPC105235
    PK10C010  2009 12  2.0120  5.249785  0.259951    4.0608  141.8885    9.1361  20180304   9.5  4.0  P/2010 C1 (Scotti)                                       MPC 75008
    PK10D020  2010 02 26.9873  3.687740  0.450702  120.3309  319.8444   57.1098  20180304  16.0  4.0  P/2010 D2 (WISE)                                         MPC 75008
    CK10D030  2010 09  3.2679  4.249202  1.000039  304.6547  255.0652   76.3156  20180304   9.0  4.0  C/2010 D3 (WISE)                                         MPC 84315
    CK10D040  2009 03 26.6518  7.153928  0.885363   44.3861  266.7396  105.7824  20180304   6.5  4.0  C/2010 D4 (WISE)                                         MPC 76025
    CK10D56G  2010 05 16.5512  1.575514  0.976595  318.3503    4.1313  160.4111  20180304  16.0  4.0  C/2010 DG56 (WISE)                                       MPC 74248
    CK10E010  2009 11  4.2126  2.686557  0.976097  297.2188  169.2138   71.6168  20180304  11.5  4.0  C/2010 E1 (Garradd)                                      MPC 70361
    PK10E020  2010 04 10.4534  2.395685  0.722295    8.3198  177.8135   15.4617  20180304  14.0  4.0  P/2010 E2 (Jarnac)                                       MPC 75009
    CK10E050  2009 11 20.7917  3.906113  0.843711  148.1028   16.9241   18.9079  20180304  10.5  4.0  C/2010 E5 (Scotti)                                       MPC 70361
    CK10F010  2009 11  7.3389  3.616324  0.947984  127.7757  344.3494   64.8635  20180304   9.5  4.0  C/2010 F1 (Boattini)                                     MPC 72132
    CK10F030  2010 08  5.5162  5.463351  0.915294   31.4731  157.3296    4.6480  20180304   8.5  4.0  C/2010 F3 (Scotti)                                       MPC 82316
    CK10F87B  2010 11  5.5124  2.851394  0.987417  265.0820   90.0404  107.8629  20180304  10.0  4.0  C/2010 FB87 (WISE-Garradd)                               MPC 82316
    CK10G010  2010 04  1.6326  1.216103  0.997690  168.8002  287.6128   78.1476  20180304  12.5  4.0  C/2010 G1 (Boattini)                                     MPC 70816
    CK10G020  2011 09  2.4330  1.975428  0.978849  137.4056  247.0460  103.7536  20180304   8.0  4.0  C/2010 G2 (Hill)                                         MPC 83142
    CK10G030  2010 04  6.5042  4.921495  0.994960   75.2140  313.7811  108.3316  20180304   8.5  4.0  C/2010 G3 (WISE)                                         MPC 75292
    CK10H010  2010 06 21.4077  2.739388  0.999306  233.7925  347.3415   36.5507  20180304  13.0  4.0  C/2010 H1 (Garradd)                                      MPC 82316
